[
  {
    "community": "Acheleia",
    "postcode": 8503,
    "district": "Pafos"
  },
  {
    "community": "Acheritou",
    "postcode": 5521,
    "district": "Ammochostos"
  },
  {
    "community": "Achna",
    "postcode": 5500,
    "district": "Ammochostos"
  },
  {
    "community": "Afanteia - Ornithi",
    "postcode": 5560,
    "district": "Ammochostos"
  },
  {
    "community": "Agia",
    "postcode": 2561,
    "district": "Lefkosia"
  },
  {
    "community": "Agia Anna",
    "postcode": 7641,
    "district": "Larnaka"
  },
  {
    "community": "Agia Eirini Keryneias",
    "postcode": 9610,
    "district": "Keryneia"
  },
  {
    "community": "Agia Eirini Lefkosias",
    "postcode": 2820,
    "district": "Lefkosia"
  },
  {
    "community": "Agia Marina Chrysochous",
    "postcode": 8881,
    "district": "Pafos"
  },
  {
    "community": "Agia Marina Kelokedaron",
    "postcode": 8641,
    "district": "Pafos"
  },
  {
    "community": "Agia Marina Skyllouras",
    "postcode": 2670,
    "district": "Lefkosia"
  },
  {
    "community": "Agia Marina Xyliatou",
    "postcode": 2772,
    "district": "Lefkosia"
  },
  {
    "community": "Agia Marinouda",
    "postcode": 8240,
    "district": "Pafos"
  },
  {
    "community": "Agia Napa",
    "postcode": 5330,
    "district": "Ammochostos"
  },
  {
    "community": "Agia Thekla",
    "postcode": 5391,
    "district": "Ammochostos"
  },
  {
    "community": "Agia Trias",
    "postcode": 5870,
    "district": "Ammochostos"
  },
  {
    "community": "Agia Varvara Lefkosias",
    "postcode": 2560,
    "district": "Lefkosia"
  },
  {
    "community": "Agia Varvara Pafou",
    "postcode": 8501,
    "district": "Pafos"
  },
  {
    "community": "Agio Georgoudi",
    "postcode": 2952,
    "district": "Lefkosia"
  },
  {
    "community": "Agioi Iliofotoi",
    "postcode": 2775,
    "district": "Lefkosia"
  },
  {
    "community": "Agioi Trimithias",
    "postcode": 2671,
    "district": "Lefkosia"
  },
  {
    "community": "Agioi Vavatsinias",
    "postcode": 7711,
    "district": "Larnaka"
  },
  {
    "community": "Agios Amvrosios Keryneias",
    "postcode": 9560,
    "district": "Keryneia"
  },
  {
    "community": "Agios Amvrosios Lemesou",
    "postcode": 4710,
    "district": "Lemesos"
  },
  {
    "community": "Agios Andronikos Karpasias",
    "postcode": 5820,
    "district": "Ammochostos"
  },
  {
    "community": "Agios Andronikos Trikomou",
    "postcode": 5761,
    "district": "Ammochostos"
  },
  {
    "community": "Agios Athanasios",
    "postcode": "4100 - 4108",
    "district": "Lemesos"
  },
  {
    "community": "Agios Chariton",
    "postcode": 5651,
    "district": "Ammochostos"
  },
  {
    "community": "Agios Dimitrianos",
    "postcode": 8741,
    "district": "Pafos"
  },
  {
    "community": "Agios Dimitrios",
    "postcode": 4842,
    "district": "Lemesos"
  },
  {
    "community": "Agios Dometios",
    "postcode": "2360 - 2373",
    "district": "Lefkosia"
  },
  {
    "community": "Agios Efstathios",
    "postcode": 5721,
    "district": "Ammochostos"
  },
  {
    "community": "Agios Epifanios Oreinis",
    "postcode": 2610,
    "district": "Lefkosia"
  },
  {
    "community": "Agios Epifanios Soleas",
    "postcode": 2821,
    "district": "Lefkosia"
  },
  {
    "community": "Agios Epiktitos",
    "postcode": 9500,
    "district": "Keryneia"
  },
  {
    "community": "Agios Ermolaos",
    "postcode": 9611,
    "district": "Keryneia"
  },
  {
    "community": "Agios Filon",
    "postcode": 5872,
    "district": "Ammochostos"
  },
  {
    "community": "Agios Georgios Acheritou",
    "postcode": 5520,
    "district": "Ammochostos"
  },
  {
    "community": "Agios Georgios Ammochostou",
    "postcode": 5720,
    "district": "Ammochostos"
  },
  {
    "community": "Agios Georgios Kafkalou",
    "postcode": 2773,
    "district": "Lefkosia"
  },
  {
    "community": "Agios Georgios Keryneias",
    "postcode": 9390,
    "district": "Keryneia"
  },
  {
    "community": "Agios Georgios Lemesou",
    "postcode": 4740,
    "district": "Lemesos"
  },
  {
    "community": "Agios Georgios Pafou",
    "postcode": 8607,
    "district": "Pafos"
  },
  {
    "community": "Agios Georgios Soleas",
    "postcode": 2822,
    "district": "Lefkosia"
  },
  {
    "community": "Agios Iakovos",
    "postcode": 5762,
    "district": "Ammochostos"
  },
  {
    "community": "Agios Ilias",
    "postcode": 5722,
    "district": "Ammochostos"
  },
  {
    "community": "Agios Ioannis Lefkosias",
    "postcode": 2611,
    "district": "Lefkosia"
  },
  {
    "community": "Agios Ioannis Lemesou",
    "postcode": 4871,
    "district": "Lemesos"
  },
  {
    "community": "Agios Ioannis Pafou",
    "postcode": 8621,
    "district": "Pafos"
  },
  {
    "community": "Agios Ioannis Selemani",
    "postcode": 2965,
    "district": "Lefkosia"
  },
  {
    "community": "Agios Isidoros",
    "postcode": 8872,
    "district": "Pafos"
  },
  {
    "community": "Agios Konstantinos",
    "postcode": 4561,
    "district": "Lemesos"
  },
  {
    "community": "Agios Mamas",
    "postcode": 4741,
    "district": "Lemesos"
  },
  {
    "community": "Agios Merkourios",
    "postcode": 8801,
    "district": "Pafos"
  },
  {
    "community": "Agios Nikolaos Ammochostou",
    "postcode": 5620,
    "district": "Ammochostos"
  },
  {
    "community": "Agios Nikolaos Pafou",
    "postcode": 8623,
    "district": "Pafos"
  },
  {
    "community": "Agios Nikolaos Soleas",
    "postcode": 2824,
    "district": "Lefkosia"
  },
  {
    "community": "Agios Nikolaos Stegis",
    "postcode": 2825,
    "district": "Lefkosia"
  },
  {
    "community": "Agios Pavlos",
    "postcode": 4562,
    "district": "Lemesos"
  },
  {
    "community": "Agios Sergios",
    "postcode": 5621,
    "district": "Ammochostos"
  },
  {
    "community": "Agios Sozomenos",
    "postcode": 2562,
    "district": "Lefkosia"
  },
  {
    "community": "Agios Symeon",
    "postcode": 5821,
    "district": "Ammochostos"
  },
  {
    "community": "Agios Theodoros Ammochostou",
    "postcode": 5723,
    "district": "Ammochostos"
  },
  {
    "community": "Agios Theodoros Larnakas",
    "postcode": 7730,
    "district": "Larnaka"
  },
  {
    "community": "Agios Theodoros Lemesou",
    "postcode": 4870,
    "district": "Lemesos"
  },
  {
    "community": "Agios Theodoros Soleas",
    "postcode": 2823,
    "district": "Lefkosia"
  },
  {
    "community": "Agios Theodoros Tillirias",
    "postcode": 2951,
    "district": "Lefkosia"
  },
  {
    "community": "Agios Therapon",
    "postcode": 4711,
    "district": "Lemesos"
  },
  {
    "community": "Agios Therissos",
    "postcode": 5871,
    "district": "Ammochostos"
  },
  {
    "community": "Agios Thomas",
    "postcode": 4606,
    "district": "Lemesos"
  },
  {
    "community": "Agios Tychon",
    "postcode": 4521,
    "district": "Lemesos"
  },
  {
    "community": "Agios Tychon Touristiki Periochi",
    "postcode": 4532,
    "district": "Lemesos"
  },
  {
    "community": "Agios Vasileios",
    "postcode": 2672,
    "district": "Lefkosia"
  },
  {
    "community": "Agirda",
    "postcode": 9541,
    "district": "Keryneia"
  },
  {
    "community": "Aglantzia (Aglangia)",
    "postcode": "2100 - 2123",
    "district": "Lefkosia"
  },
  {
    "community": "Agridaki",
    "postcode": 9612,
    "district": "Keryneia"
  },
  {
    "community": "Agridia",
    "postcode": 4872,
    "district": "Lemesos"
  },
  {
    "community": "Agrokipia",
    "postcode": 2617,
    "district": "Lefkosia"
  },
  {
    "community": "Agroladou",
    "postcode": 2837,
    "district": "Lefkosia"
  },
  {
    "community": "Agros",
    "postcode": 4860,
    "district": "Lemesos"
  },
  {
    "community": "Aigialousa",
    "postcode": 5800,
    "district": "Ammochostos"
  },
  {
    "community": "Akaki",
    "postcode": 2720,
    "district": "Lefkosia"
  },
  {
    "community": "Akanthou",
    "postcode": 5750,
    "district": "Ammochostos"
  },
  {
    "community": "Akapnou",
    "postcode": 4501,
    "district": "Lemesos"
  },
  {
    "community": "Akoursos",
    "postcode": 8572,
    "district": "Pafos"
  },
  {
    "community": "Akrotiri",
    "postcode": 4640,
    "district": "Lemesos"
  },
  {
    "community": "Akrounta",
    "postcode": 4522,
    "district": "Lemesos"
  },
  {
    "community": "Akti Kyverniti",
    "postcode": 4528,
    "district": "Lemesos"
  },
  {
    "community": "Alaminos",
    "postcode": 7572,
    "district": "Larnaka"
  },
  {
    "community": "Alampra",
    "postcode": 2563,
    "district": "Lefkosia"
  },
  {
    "community": "Alassa",
    "postcode": 4712,
    "district": "Lemesos"
  },
  {
    "community": "Alektora",
    "postcode": 4602,
    "district": "Lemesos"
  },
  {
    "community": "Alethriko",
    "postcode": 7570,
    "district": "Larnaka"
  },
  {
    "community": "Alevga",
    "postcode": 2953,
    "district": "Lefkosia"
  },
  {
    "community": "Alithinou",
    "postcode": 2750,
    "district": "Lefkosia"
  },
  {
    "community": "Aloda",
    "postcode": 5623,
    "district": "Ammochostos"
  },
  {
    "community": "Alona",
    "postcode": 2751,
    "district": "Lefkosia"
  },
  {
    "community": "Amargeti",
    "postcode": 8642,
    "district": "Pafos"
  },
  {
    "community": "Ammadies",
    "postcode": 2954,
    "district": "Lefkosia"
  },
  {
    "community": "Ammochostos",
    "postcode": 5000,
    "district": "Ammochostos"
  },
  {
    "community": "Ampelikou",
    "postcode": 2920,
    "district": "Lefkosia"
  },
  {
    "community": "Anadiou",
    "postcode": 8802,
    "district": "Pafos"
  },
  {
    "community": "Anafotida",
    "postcode": 7573,
    "district": "Larnaka"
  },
  {
    "community": "Anageia",
    "postcode": 2640,
    "district": "Lefkosia"
  },
  {
    "community": "Analiontas",
    "postcode": 2641,
    "district": "Lefkosia"
  },
  {
    "community": "Anarita",
    "postcode": 8502,
    "district": "Pafos"
  },
  {
    "community": "Androlikou",
    "postcode": 8701,
    "district": "Pafos"
  },
  {
    "community": "Angastina",
    "postcode": 5652,
    "district": "Ammochostos"
  },
  {
    "community": "Anglikos Stratos Akrotiriou",
    "postcode": 3370,
    "district": "Lemesos"
  },
  {
    "community": "Anglikos Stratos Dekeleias",
    "postcode": 6370,
    "district": "Larnaka"
  },
  {
    "community": "Anglikos Stratos Lefkosias",
    "postcode": 1370,
    "district": "Lefkosia"
  },
  {
    "community": "Anglisides",
    "postcode": 7571,
    "district": "Larnaka"
  },
  {
    "community": "Angolemi",
    "postcode": 2826,
    "district": "Lefkosia"
  },
  {
    "community": "Anogyra",
    "postcode": 4603,
    "district": "Lemesos"
  },
  {
    "community": "Apesia",
    "postcode": 4541,
    "district": "Lemesos"
  },
  {
    "community": "Aplanta",
    "postcode": 7574,
    "district": "Larnaka"
  },
  {
    "community": "Apliki",
    "postcode": 2613,
    "district": "Lefkosia"
  },
  {
    "community": "Apsiou",
    "postcode": 4542,
    "district": "Lemesos"
  },
  {
    "community": "Aradippou",
    "postcode": "7100 - 7105",
    "district": "Larnaka"
  },
  {
    "community": "Arakapas",
    "postcode": 4563,
    "district": "Lemesos"
  },
  {
    "community": "Ardana",
    "postcode": 5763,
    "district": "Ammochostos"
  },
  {
    "community": "Arediou",
    "postcode": 2614,
    "district": "Lefkosia"
  },
  {
    "community": "Argaka",
    "postcode": 8873,
    "district": "Pafos"
  },
  {
    "community": "Argaki",
    "postcode": 2721,
    "district": "Lefkosia"
  },
  {
    "community": "Armenochori",
    "postcode": 4523,
    "district": "Lemesos"
  },
  {
    "community": "Armenomonastiro",
    "postcode": 9570,
    "district": "Keryneia"
  },
  {
    "community": "Arminou",
    "postcode": 8625,
    "district": "Pafos"
  },
  {
    "community": "Armou",
    "postcode": 8522,
    "district": "Pafos"
  },
  {
    "community": "Arnadi",
    "postcode": 5724,
    "district": "Ammochostos"
  },
  {
    "community": "Arsos Larnakas",
    "postcode": 7620,
    "district": "Larnaka"
  },
  {
    "community": "Arsos Lemesou",
    "postcode": 4770,
    "district": "Lemesos"
  },
  {
    "community": "Artemi",
    "postcode": 5622,
    "district": "Ammochostos"
  },
  {
    "community": "Asgata",
    "postcode": 4502,
    "district": "Lemesos"
  },
  {
    "community": "Asinou",
    "postcode": 2778,
    "district": "Lefkosia"
  },
  {
    "community": "Askas",
    "postcode": 2752,
    "district": "Lefkosia"
  },
  {
    "community": "Asomatos Keryneias",
    "postcode": 9613,
    "district": "Keryneia"
  },
  {
    "community": "Asomatos Lemesou",
    "postcode": 4645,
    "district": "Lemesos"
  },
  {
    "community": "Asprogia",
    "postcode": 8643,
    "district": "Pafos"
  },
  {
    "community": "Asseia (Askeia)",
    "postcode": 5561,
    "district": "Ammochostos"
  },
  {
    "community": "Astromeritis",
    "postcode": 2722,
    "district": "Lefkosia"
  },
  {
    "community": "Athienou",
    "postcode": 7600,
    "district": "Larnaka"
  },
  {
    "community": "Athrakos",
    "postcode": 4567,
    "district": "Lemesos"
  },
  {
    "community": "Avdellero",
    "postcode": 7501,
    "district": "Larnaka"
  },
  {
    "community": "Avdimou",
    "postcode": 4600,
    "district": "Lemesos"
  },
  {
    "community": "Avgolida",
    "postcode": 5725,
    "district": "Ammochostos"
  },
  {
    "community": "Avgorou",
    "postcode": 5510,
    "district": "Ammochostos"
  },
  {
    "community": "Avlona",
    "postcode": 2673,
    "district": "Lefkosia"
  },
  {
    "community": "Axylou",
    "postcode": 8521,
    "district": "Pafos"
  },
  {
    "community": "Beikioi",
    "postcode": 2527,
    "district": "Lefkosia"
  },
  {
    "community": "Belapais",
    "postcode": 9514,
    "district": "Keryneia"
  },
  {
    "community": "Bogazi",
    "postcode": 5731,
    "district": "Ammochostos"
  },
  {
    "community": "Chalefka",
    "postcode": 9576,
    "district": "Keryneia"
  },
  {
    "community": "Challeri",
    "postcode": 2963,
    "district": "Lefkosia"
  },
  {
    "community": "Chandria",
    "postcode": 4875,
    "district": "Lemesos"
  },
  {
    "community": "Charkeia (Chartzeia)",
    "postcode": 9577,
    "district": "Keryneia"
  },
  {
    "community": "Chelones",
    "postcode": 5878,
    "district": "Ammochostos"
  },
  {
    "community": "Chlorakas",
    "postcode": "8220 - 8221",
    "district": "Pafos"
  },
  {
    "community": "Choirokoitia",
    "postcode": 7741,
    "district": "Larnaka"
  },
  {
    "community": "Choletria",
    "postcode": 8526,
    "district": "Pafos"
  },
  {
    "community": "Choli",
    "postcode": 8730,
    "district": "Pafos"
  },
  {
    "community": "Choulou",
    "postcode": 8552,
    "district": "Pafos"
  },
  {
    "community": "Chrysida",
    "postcode": 2730,
    "district": "Lefkosia"
  },
  {
    "community": "Chrysochou",
    "postcode": 8855,
    "district": "Pafos"
  },
  {
    "community": "Dali",
    "postcode": 2540,
    "district": "Lefkosia"
  },
  {
    "community": "Dali (Ilioupoli)",
    "postcode": 2546,
    "district": "Lefkosia"
  },
  {
    "community": "Dali (Kallithea)",
    "postcode": 2548,
    "district": "Lefkosia"
  },
  {
    "community": "Dali (Konstantia)",
    "postcode": 2547,
    "district": "Lefkosia"
  },
  {
    "community": "Dali (Nea Lidra)",
    "postcode": 2549,
    "district": "Lefkosia"
  },
  {
    "community": "Dasaki Achnas",
    "postcode": 5523,
    "district": "Ammochostos"
  },
  {
    "community": "Dasiko Kolegio Kyprou",
    "postcode": 4841,
    "district": "Lemesos"
  },
  {
    "community": "Dasikos Stathmos Agias",
    "postcode": 8803,
    "district": "Pafos"
  },
  {
    "community": "Dasikos Stathmos Kapouras",
    "postcode": 2828,
    "district": "Lefkosia"
  },
  {
    "community": "Dasikos Stathmos Panagias",
    "postcode": 2782,
    "district": "Lefkosia"
  },
  {
    "community": "Dasikos Stathmos Platanion",
    "postcode": 2829,
    "district": "Lefkosia"
  },
  {
    "community": "Dasikos Stathmos Stavrou tis Psokas",
    "postcode": 8804,
    "district": "Pafos"
  },
  {
    "community": "Davlos",
    "postcode": 5765,
    "district": "Ammochostos"
  },
  {
    "community": "Dekeleia",
    "postcode": 7502,
    "district": "Larnaka"
  },
  {
    "community": "Delikipos",
    "postcode": 7642,
    "district": "Larnaka"
  },
  {
    "community": "Deneia",
    "postcode": 2675,
    "district": "Lefkosia"
  },
  {
    "community": "Deryneia",
    "postcode": 5380,
    "district": "Ammochostos"
  },
  {
    "community": "Dierona",
    "postcode": 4564,
    "district": "Lemesos"
  },
  {
    "community": "Diorios",
    "postcode": 9614,
    "district": "Keryneia"
  },
  {
    "community": "Dora",
    "postcode": 4774,
    "district": "Lemesos"
  },
  {
    "community": "Doros",
    "postcode": 4750,
    "district": "Lemesos"
  },
  {
    "community": "Drapeia",
    "postcode": 7722,
    "district": "Larnaka"
  },
  {
    "community": "Dromolaxia",
    "postcode": 7020,
    "district": "Larnaka"
  },
  {
    "community": "Drouseia",
    "postcode": 8700,
    "district": "Pafos"
  },
  {
    "community": "Drymou",
    "postcode": 8742,
    "district": "Pafos"
  },
  {
    "community": "Dymes",
    "postcode": 4873,
    "district": "Lemesos"
  },
  {
    "community": "Dyo Potamoi",
    "postcode": 2676,
    "district": "Lefkosia"
  },
  {
    "community": "Egkomi Ammochostou",
    "postcode": 5627,
    "district": "Ammochostos"
  },
  {
    "community": "Egkomi Lefkosias",
    "postcode": "2400 - 2417",
    "district": "Lefkosia"
  },
  {
    "community": "Eledio",
    "postcode": 8523,
    "district": "Pafos"
  },
  {
    "community": "Elia Keryneias",
    "postcode": 9632,
    "district": "Keryneia"
  },
  {
    "community": "Elia Lefkosias",
    "postcode": 2830,
    "district": "Lefkosia"
  },
  {
    "community": "Elliniki Dynamis Kyprou (EL.DY.K.)",
    "postcode": 1380,
    "district": "Lefkosia"
  },
  {
    "community": "Empa",
    "postcode": 8250,
    "district": "Pafos"
  },
  {
    "community": "Epicho",
    "postcode": 2522,
    "district": "Lefkosia"
  },
  {
    "community": "Episkopeio",
    "postcode": 2642,
    "district": "Lefkosia"
  },
  {
    "community": "Episkopi Lemesou",
    "postcode": 4620,
    "district": "Lemesos"
  },
  {
    "community": "Episkopi Pafou",
    "postcode": 8524,
    "district": "Pafos"
  },
  {
    "community": "Eptagoneia",
    "postcode": 4506,
    "district": "Lemesos"
  },
  {
    "community": "Eptakomi",
    "postcode": 5824,
    "district": "Ammochostos"
  },
  {
    "community": "Ergates",
    "postcode": 2643,
    "district": "Lefkosia"
  },
  {
    "community": "Erimi",
    "postcode": 4630,
    "district": "Lemesos"
  },
  {
    "community": "Evretou",
    "postcode": 8805,
    "district": "Pafos"
  },
  {
    "community": "Evrychou",
    "postcode": 2831,
    "district": "Lefkosia"
  },
  {
    "community": "Eχο Metochi",
    "postcode": 2521,
    "district": "Lefkosia"
  },
  {
    "community": "Faleia",
    "postcode": 8654,
    "district": "Pafos"
  },
  {
    "community": "Farmakas",
    "postcode": 2620,
    "district": "Lefkosia"
  },
  {
    "community": "Fasli",
    "postcode": 8706,
    "district": "Pafos"
  },
  {
    "community": "Fasoula Lemesou",
    "postcode": 4551,
    "district": "Lemesos"
  },
  {
    "community": "Fasoula Pafou",
    "postcode": 8609,
    "district": "Pafos"
  },
  {
    "community": "Fasouri",
    "postcode": 4653,
    "district": "Lemesos"
  },
  {
    "community": "Fikardou",
    "postcode": 2623,
    "district": "Lefkosia"
  },
  {
    "community": "Filani",
    "postcode": 2652,
    "district": "Lefkosia"
  },
  {
    "community": "Flamoudi",
    "postcode": 5771,
    "district": "Ammochostos"
  },
  {
    "community": "Foini",
    "postcode": 4814,
    "district": "Lemesos"
  },
  {
    "community": "Foinikaria",
    "postcode": 4530,
    "district": "Lemesos"
  },
  {
    "community": "Foinikas",
    "postcode": 8508,
    "district": "Pafos"
  },
  {
    "community": "Fota",
    "postcode": 9551,
    "district": "Keryneia"
  },
  {
    "community": "Frenaros",
    "postcode": 5350,
    "district": "Ammochostos"
  },
  {
    "community": "Frodisia",
    "postcode": 2860,
    "district": "Lefkosia"
  },
  {
    "community": "Ftericha",
    "postcode": 9639,
    "district": "Keryneia"
  },
  {
    "community": "Fterikoudi",
    "postcode": 2758,
    "district": "Lefkosia"
  },
  {
    "community": "Fyllia",
    "postcode": 2684,
    "district": "Lefkosia"
  },
  {
    "community": "Fylousa Chrysochous",
    "postcode": 8811,
    "district": "Pafos"
  },
  {
    "community": "Fylousa Kelokedaron",
    "postcode": 8629,
    "district": "Pafos"
  },
  {
    "community": "Fyti",
    "postcode": 8748,
    "district": "Pafos"
  },
  {
    "community": "Gaidouras (Nea Sparti)",
    "postcode": 5624,
    "district": "Ammochostos"
  },
  {
    "community": "Galata",
    "postcode": 2827,
    "district": "Lefkosia"
  },
  {
    "community": "Galataria",
    "postcode": 8645,
    "district": "Pafos"
  },
  {
    "community": "Galateia",
    "postcode": 5825,
    "district": "Ammochostos"
  },
  {
    "community": "Galini",
    "postcode": 2922,
    "district": "Lefkosia"
  },
  {
    "community": "Galinoporni",
    "postcode": 5874,
    "district": "Ammochostos"
  },
  {
    "community": "Gastria",
    "postcode": 5727,
    "district": "Ammochostos"
  },
  {
    "community": "Genagra",
    "postcode": 5655,
    "district": "Ammochostos"
  },
  {
    "community": "Gerakies",
    "postcode": 2861,
    "district": "Lefkosia"
  },
  {
    "community": "Gerani",
    "postcode": 5764,
    "district": "Ammochostos"
  },
  {
    "community": "Gerasa",
    "postcode": 4543,
    "district": "Lemesos"
  },
  {
    "community": "Geri",
    "postcode": "2200 - 2202",
    "district": "Lefkosia"
  },
  {
    "community": "Germasogeia",
    "postcode": "4040 - 4049",
    "district": "Lemesos"
  },
  {
    "community": "Gerolakkos",
    "postcode": 2674,
    "district": "Lefkosia"
  },
  {
    "community": "Geroskipou",
    "postcode": "8200 - 8201",
    "district": "Pafos"
  },
  {
    "community": "Gerovasa (Trozena)",
    "postcode": 4773,
    "district": "Lemesos"
  },
  {
    "community": "Giolou",
    "postcode": 8720,
    "district": "Pafos"
  },
  {
    "community": "Goudi",
    "postcode": 8850,
    "district": "Pafos"
  },
  {
    "community": "Goufes",
    "postcode": 5625,
    "district": "Ammochostos"
  },
  {
    "community": "Gourri",
    "postcode": 2615,
    "district": "Lefkosia"
  },
  {
    "community": "Gypsou",
    "postcode": 5626,
    "district": "Ammochostos"
  },
  {
    "community": "Ineia",
    "postcode": 8704,
    "district": "Pafos"
  },
  {
    "community": "Kakopetria",
    "postcode": 2800,
    "district": "Lefkosia"
  },
  {
    "community": "Kalavasos",
    "postcode": 7733,
    "district": "Larnaka"
  },
  {
    "community": "Kaliana",
    "postcode": 2832,
    "district": "Lefkosia"
  },
  {
    "community": "Kallepeia",
    "postcode": 8541,
    "district": "Pafos"
  },
  {
    "community": "Kalo Chorio (Kapouti)",
    "postcode": 2726,
    "district": "Lefkosia"
  },
  {
    "community": "Kalo Chorio Larnakas",
    "postcode": 7643,
    "district": "Larnaka"
  },
  {
    "community": "Kalo Chorio Lemesou",
    "postcode": 4566,
    "district": "Lemesos"
  },
  {
    "community": "Kalo Chorio Oreinis",
    "postcode": 2616,
    "district": "Lefkosia"
  },
  {
    "community": "Kalo Chorio Soleas",
    "postcode": 2833,
    "district": "Lefkosia"
  },
  {
    "community": "Kalograia",
    "postcode": 9571,
    "district": "Keryneia"
  },
  {
    "community": "Kalopanagiotis",
    "postcode": 2862,
    "district": "Lefkosia"
  },
  {
    "community": "Kalopsida",
    "postcode": 5563,
    "district": "Ammochostos"
  },
  {
    "community": "Kalyvakia",
    "postcode": 2523,
    "district": "Lefkosia"
  },
  {
    "community": "Kaminaria",
    "postcode": 4843,
    "district": "Lemesos"
  },
  {
    "community": "Kampi",
    "postcode": 2619,
    "district": "Lefkosia"
  },
  {
    "community": "Kampia",
    "postcode": 2644,
    "district": "Lefkosia"
  },
  {
    "community": "Kampos",
    "postcode": 2863,
    "district": "Lefkosia"
  },
  {
    "community": "Kampyli",
    "postcode": 9615,
    "district": "Keryneia"
  },
  {
    "community": "Kanli",
    "postcode": 2677,
    "district": "Lefkosia"
  },
  {
    "community": "Kannavia",
    "postcode": 2834,
    "district": "Lefkosia"
  },
  {
    "community": "Kannaviou",
    "postcode": 8746,
    "district": "Pafos"
  },
  {
    "community": "Kantara",
    "postcode": 5766,
    "district": "Ammochostos"
  },
  {
    "community": "Kantou",
    "postcode": 4631,
    "district": "Lemesos"
  },
  {
    "community": "Kapedes",
    "postcode": 2645,
    "district": "Lefkosia"
  },
  {
    "community": "Kapileio",
    "postcode": 4544,
    "district": "Lemesos"
  },
  {
    "community": "Karakoumi",
    "postcode": 9512,
    "district": "Keryneia"
  },
  {
    "community": "Karamoullides",
    "postcode": 8851,
    "district": "Pafos"
  },
  {
    "community": "Karavas",
    "postcode": 9200,
    "district": "Keryneia"
  },
  {
    "community": "Karavostasi",
    "postcode": 2924,
    "district": "Lefkosia"
  },
  {
    "community": "Karmi",
    "postcode": 9513,
    "district": "Keryneia"
  },
  {
    "community": "Karpaseia",
    "postcode": 9616,
    "district": "Keryneia"
  },
  {
    "community": "Kataliontas",
    "postcode": 2646,
    "district": "Lefkosia"
  },
  {
    "community": "Kathikas",
    "postcode": 8573,
    "district": "Pafos"
  },
  {
    "community": "Kato Akourdaleia",
    "postcode": 8721,
    "district": "Pafos"
  },
  {
    "community": "Kato Amiantos",
    "postcode": 4810,
    "district": "Lemesos"
  },
  {
    "community": "Kato Archimandrita",
    "postcode": 8602,
    "district": "Pafos"
  },
  {
    "community": "Kato Arodes",
    "postcode": 8702,
    "district": "Pafos"
  },
  {
    "community": "Kato Deftera",
    "postcode": 2450,
    "district": "Lefkosia"
  },
  {
    "community": "Kato Deryneia",
    "postcode": 5370,
    "district": "Ammochostos"
  },
  {
    "community": "Kato Dikomo",
    "postcode": 9530,
    "district": "Keryneia"
  },
  {
    "community": "Kato Drys",
    "postcode": 7714,
    "district": "Larnaka"
  },
  {
    "community": "Kato Flasou",
    "postcode": 2843,
    "district": "Lefkosia"
  },
  {
    "community": "Kato Gialia",
    "postcode": 8874,
    "district": "Pafos"
  },
  {
    "community": "Kato Kivides",
    "postcode": 4714,
    "district": "Lemesos"
  },
  {
    "community": "Kato Koutrafas",
    "postcode": 2770,
    "district": "Lefkosia"
  },
  {
    "community": "Kato Lefkara",
    "postcode": 7710,
    "district": "Larnaka"
  },
  {
    "community": "Kato Moni",
    "postcode": 2776,
    "district": "Lefkosia"
  },
  {
    "community": "Kato Mylos",
    "postcode": 4874,
    "district": "Lemesos"
  },
  {
    "community": "Kato Panagia",
    "postcode": 8548,
    "district": "Pafos"
  },
  {
    "community": "Kato Platres",
    "postcode": 4815,
    "district": "Lemesos"
  },
  {
    "community": "Kato Polemidia",
    "postcode": "4150 - 4170",
    "district": "Lemesos"
  },
  {
    "community": "Kato Pyrgos",
    "postcode": 2940,
    "district": "Lefkosia"
  },
  {
    "community": "Katokopia",
    "postcode": 2725,
    "district": "Lefkosia"
  },
  {
    "community": "Katydata",
    "postcode": 2835,
    "district": "Lefkosia"
  },
  {
    "community": "Kazafani",
    "postcode": 9511,
    "district": "Keryneia"
  },
  {
    "community": "Kazivera",
    "postcode": 2923,
    "district": "Lefkosia"
  },
  {
    "community": "Kedares",
    "postcode": 8626,
    "district": "Pafos"
  },
  {
    "community": "Kellaki",
    "postcode": 4500,
    "district": "Lemesos"
  },
  {
    "community": "Kellia",
    "postcode": 7503,
    "district": "Larnaka"
  },
  {
    "community": "Kelokedara",
    "postcode": 8628,
    "district": "Pafos"
  },
  {
    "community": "Keryneia",
    "postcode": 9000,
    "district": "Keryneia"
  },
  {
    "community": "Kiados",
    "postcode": 5654,
    "district": "Ammochostos"
  },
  {
    "community": "Kidasi",
    "postcode": 8627,
    "district": "Pafos"
  },
  {
    "community": "Kiomourtzou",
    "postcode": 9543,
    "district": "Keryneia"
  },
  {
    "community": "Kioneli",
    "postcode": 2678,
    "district": "Lefkosia"
  },
  {
    "community": "Kios",
    "postcode": 8807,
    "district": "Pafos"
  },
  {
    "community": "Kissonerga",
    "postcode": 8574,
    "district": "Pafos"
  },
  {
    "community": "Kissousa",
    "postcode": 4775,
    "district": "Lemesos"
  },
  {
    "community": "Kiti",
    "postcode": 7550,
    "district": "Larnaka"
  },
  {
    "community": "Kivisili",
    "postcode": 7575,
    "district": "Larnaka"
  },
  {
    "community": "Klavdia",
    "postcode": 7576,
    "district": "Larnaka"
  },
  {
    "community": "Klepini",
    "postcode": 9572,
    "district": "Keryneia"
  },
  {
    "community": "Klirou",
    "postcode": 2600,
    "district": "Lefkosia"
  },
  {
    "community": "Klonari",
    "postcode": 4507,
    "district": "Lemesos"
  },
  {
    "community": "Knodara",
    "postcode": 5656,
    "district": "Ammochostos"
  },
  {
    "community": "Kofinou",
    "postcode": 7735,
    "district": "Larnaka"
  },
  {
    "community": "Koilanemos",
    "postcode": 5826,
    "district": "Ammochostos"
  },
  {
    "community": "Koilani",
    "postcode": 4776,
    "district": "Lemesos"
  },
  {
    "community": "Koili",
    "postcode": 8543,
    "district": "Pafos"
  },
  {
    "community": "Koilineia",
    "postcode": 8646,
    "district": "Pafos"
  },
  {
    "community": "Kokkina",
    "postcode": 2955,
    "district": "Lefkosia"
  },
  {
    "community": "Kokkinotrimithia",
    "postcode": 2660,
    "district": "Lefkosia"
  },
  {
    "community": "Koloni",
    "postcode": 8310,
    "district": "Pafos"
  },
  {
    "community": "Kolossi",
    "postcode": 4632,
    "district": "Lemesos"
  },
  {
    "community": "Kolossi (Synoikismos)",
    "postcode": 4636,
    "district": "Lemesos"
  },
  {
    "community": "Koma Tou Gialou",
    "postcode": 5827,
    "district": "Ammochostos"
  },
  {
    "community": "Komi",
    "postcode": 5828,
    "district": "Ammochostos"
  },
  {
    "community": "Konia",
    "postcode": 8300,
    "district": "Pafos"
  },
  {
    "community": "Kontea",
    "postcode": 5564,
    "district": "Ammochostos"
  },
  {
    "community": "Kontemenos",
    "postcode": 9617,
    "district": "Keryneia"
  },
  {
    "community": "Korakou",
    "postcode": 2836,
    "district": "Lefkosia"
  },
  {
    "community": "Korfi",
    "postcode": 4545,
    "district": "Lemesos"
  },
  {
    "community": "Kormakitis",
    "postcode": 9618,
    "district": "Keryneia"
  },
  {
    "community": "Kornokipos",
    "postcode": 5657,
    "district": "Ammochostos"
  },
  {
    "community": "Kornos",
    "postcode": 7640,
    "district": "Larnaka"
  },
  {
    "community": "Koroveia",
    "postcode": 5875,
    "district": "Ammochostos"
  },
  {
    "community": "Kosi",
    "postcode": 7621,
    "district": "Larnaka"
  },
  {
    "community": "Kotsiatis",
    "postcode": 2564,
    "district": "Lefkosia"
  },
  {
    "community": "Kouka",
    "postcode": 4743,
    "district": "Lemesos"
  },
  {
    "community": "Kouklia Ammochostou",
    "postcode": 5565,
    "district": "Ammochostos"
  },
  {
    "community": "Kouklia Pafou",
    "postcode": 8500,
    "district": "Pafos"
  },
  {
    "community": "Kouklia Pafou (Cha Potami)",
    "postcode": 8510,
    "district": "Pafos"
  },
  {
    "community": "Kouklia Pafou (Lofoi Afroditis)",
    "postcode": 8509,
    "district": "Pafos"
  },
  {
    "community": "Kourdaka",
    "postcode": 8544,
    "district": "Pafos"
  },
  {
    "community": "Kourdali",
    "postcode": 2846,
    "district": "Lefkosia"
  },
  {
    "community": "Kourou Monastiri",
    "postcode": 2524,
    "district": "Lefkosia"
  },
  {
    "community": "Koutsoventis",
    "postcode": 9544,
    "district": "Keryneia"
  },
  {
    "community": "Krideia",
    "postcode": 5767,
    "district": "Ammochostos"
  },
  {
    "community": "Krini",
    "postcode": 9545,
    "district": "Keryneia"
  },
  {
    "community": "Kritou Marottou",
    "postcode": 8747,
    "district": "Pafos"
  },
  {
    "community": "Kritou Tera",
    "postcode": 8724,
    "district": "Pafos"
  },
  {
    "community": "Kynousa",
    "postcode": 8876,
    "district": "Pafos"
  },
  {
    "community": "Kyperounta",
    "postcode": 4876,
    "district": "Lemesos"
  },
  {
    "community": "Kyra",
    "postcode": 2727,
    "district": "Lefkosia"
  },
  {
    "community": "Kythrea",
    "postcode": 2500,
    "district": "Lefkosia"
  },
  {
    "community": "Lageia",
    "postcode": 7715,
    "district": "Larnaka"
  },
  {
    "community": "Lagoudera",
    "postcode": 2753,
    "district": "Lefkosia"
  },
  {
    "community": "Lakatameia",
    "postcode": "2300 - 2350",
    "district": "Lefkosia"
  },
  {
    "community": "Laneia",
    "postcode": 4744,
    "district": "Lemesos"
  },
  {
    "community": "Lapathos",
    "postcode": 5728,
    "district": "Ammochostos"
  },
  {
    "community": "Lapithiou",
    "postcode": 8647,
    "district": "Pafos"
  },
  {
    "community": "Lapithos",
    "postcode": 9300,
    "district": "Keryneia"
  },
  {
    "community": "Larnaka",
    "postcode": "6010 - 6060",
    "district": "Larnaka"
  },
  {
    "community": "Larnakas Lapithou",
    "postcode": 9619,
    "district": "Keryneia"
  },
  {
    "community": "Lasa",
    "postcode": 8740,
    "district": "Pafos"
  },
  {
    "community": "Latsi",
    "postcode": 8840,
    "district": "Pafos"
  },
  {
    "community": "Latsia",
    "postcode": "2220 - 2238",
    "district": "Lefkosia"
  },
  {
    "community": "Lazanias",
    "postcode": 2618,
    "district": "Lefkosia"
  },
  {
    "community": "Lefka",
    "postcode": 2900,
    "district": "Lefkosia"
  },
  {
    "community": "Lefkonoiko",
    "postcode": 5600,
    "district": "Ammochostos"
  },
  {
    "community": "Lefkosia",
    "postcode": "1010 - 1107",
    "district": "Lefkosia"
  },
  {
    "community": "Lemesos",
    "postcode": "3010 - 3120",
    "district": "Lemesos"
  },
  {
    "community": "Lemithou",
    "postcode": 4844,
    "district": "Lemesos"
  },
  {
    "community": "Lemona",
    "postcode": 8545,
    "district": "Pafos"
  },
  {
    "community": "Lempa",
    "postcode": 8260,
    "district": "Pafos"
  },
  {
    "community": "Leonarisso",
    "postcode": 5829,
    "district": "Ammochostos"
  },
  {
    "community": "Letymvou",
    "postcode": 8546,
    "district": "Pafos"
  },
  {
    "community": "Limnatis",
    "postcode": 4546,
    "district": "Lemesos"
  },
  {
    "community": "Limni",
    "postcode": 8877,
    "district": "Pafos"
  },
  {
    "community": "Limnia",
    "postcode": 5628,
    "district": "Ammochostos"
  },
  {
    "community": "Limnitis",
    "postcode": 2956,
    "district": "Lefkosia"
  },
  {
    "community": "Linou",
    "postcode": 2845,
    "district": "Lefkosia"
  },
  {
    "community": "Liopetri",
    "postcode": 5320,
    "district": "Ammochostos"
  },
  {
    "community": "Livadi",
    "postcode": 8878,
    "district": "Pafos"
  },
  {
    "community": "Livadia Ammochostou",
    "postcode": 5729,
    "district": "Ammochostos"
  },
  {
    "community": "Livadia Larnakas",
    "postcode": 7060,
    "district": "Larnaka"
  },
  {
    "community": "Livadia Lefkosias",
    "postcode": 2754,
    "district": "Lefkosia"
  },
  {
    "community": "Livera",
    "postcode": 9633,
    "district": "Keryneia"
  },
  {
    "community": "Lofou",
    "postcode": 4716,
    "district": "Lemesos"
  },
  {
    "community": "Loukrounou",
    "postcode": 8725,
    "district": "Pafos"
  },
  {
    "community": "Louroukina",
    "postcode": 2567,
    "district": "Lefkosia"
  },
  {
    "community": "Loutra Tis Afroditis",
    "postcode": 8853,
    "district": "Pafos"
  },
  {
    "community": "Loutros",
    "postcode": 2957,
    "district": "Lefkosia"
  },
  {
    "community": "Louvaras",
    "postcode": 4560,
    "district": "Lemesos"
  },
  {
    "community": "Lympia",
    "postcode": 2566,
    "district": "Lefkosia"
  },
  {
    "community": "Lysi",
    "postcode": 5540,
    "district": "Ammochostos"
  },
  {
    "community": "Lysos",
    "postcode": 8800,
    "district": "Pafos"
  },
  {
    "community": "Lythragkomi",
    "postcode": 5830,
    "district": "Ammochostos"
  },
  {
    "community": "Lythrodontas",
    "postcode": 2565,
    "district": "Lefkosia"
  },
  {
    "community": "Makounta",
    "postcode": 8879,
    "district": "Pafos"
  },
  {
    "community": "Makrasyka",
    "postcode": 5566,
    "district": "Ammochostos"
  },
  {
    "community": "Malia",
    "postcode": 4777,
    "district": "Lemesos"
  },
  {
    "community": "Malounta",
    "postcode": 2612,
    "district": "Lefkosia"
  },
  {
    "community": "Mammari",
    "postcode": 2679,
    "district": "Lefkosia"
  },
  {
    "community": "Mamonia",
    "postcode": 8600,
    "district": "Pafos"
  },
  {
    "community": "Mamountali",
    "postcode": 8648,
    "district": "Pafos"
  },
  {
    "community": "Mandres Ammochostou",
    "postcode": 5768,
    "district": "Ammochostos"
  },
  {
    "community": "Mandres Lefkosias",
    "postcode": 2534,
    "district": "Lefkosia"
  },
  {
    "community": "Mandria Lemesou",
    "postcode": 4778,
    "district": "Lemesos"
  },
  {
    "community": "Mandria Pafou",
    "postcode": 8504,
    "district": "Pafos"
  },
  {
    "community": "Mansoura",
    "postcode": 2958,
    "district": "Lefkosia"
  },
  {
    "community": "Maratha",
    "postcode": 5629,
    "district": "Ammochostos"
  },
  {
    "community": "Marathounta",
    "postcode": 8520,
    "district": "Pafos"
  },
  {
    "community": "Marathovounos",
    "postcode": 5650,
    "district": "Ammochostos"
  },
  {
    "community": "Margi",
    "postcode": 2647,
    "district": "Lefkosia"
  },
  {
    "community": "Margo",
    "postcode": 2569,
    "district": "Lefkosia"
  },
  {
    "community": "Mari",
    "postcode": 7736,
    "district": "Larnaka"
  },
  {
    "community": "Maronas",
    "postcode": 8604,
    "district": "Pafos"
  },
  {
    "community": "Maroni",
    "postcode": 7737,
    "district": "Larnaka"
  },
  {
    "community": "Masari",
    "postcode": 2680,
    "district": "Lefkosia"
  },
  {
    "community": "Mathiatis",
    "postcode": 2568,
    "district": "Lefkosia"
  },
  {
    "community": "Mathikoloni",
    "postcode": 4547,
    "district": "Lemesos"
  },
  {
    "community": "Mazotos",
    "postcode": 7577,
    "district": "Larnaka"
  },
  {
    "community": "Meladeia",
    "postcode": 8808,
    "district": "Pafos"
  },
  {
    "community": "Melamiou",
    "postcode": 8745,
    "district": "Pafos"
  },
  {
    "community": "Melanarga",
    "postcode": 5831,
    "district": "Ammochostos"
  },
  {
    "community": "Melandra",
    "postcode": 8809,
    "district": "Pafos"
  },
  {
    "community": "Melini",
    "postcode": 7716,
    "district": "Larnaka"
  },
  {
    "community": "Melounta",
    "postcode": 5630,
    "district": "Ammochostos"
  },
  {
    "community": "Melouseia",
    "postcode": 7622,
    "district": "Larnaka"
  },
  {
    "community": "Meneou",
    "postcode": 7000,
    "district": "Larnaka"
  },
  {
    "community": "Meniko",
    "postcode": 2728,
    "district": "Lefkosia"
  },
  {
    "community": "Menogeia",
    "postcode": 7578,
    "district": "Larnaka"
  },
  {
    "community": "Mesa Chorio",
    "postcode": 8290,
    "district": "Pafos"
  },
  {
    "community": "Mesa Geitonia",
    "postcode": "4000 - 4008",
    "district": "Lemesos"
  },
  {
    "community": "Mesa Potamos",
    "postcode": 4745,
    "district": "Lemesos"
  },
  {
    "community": "Mesana",
    "postcode": 8631,
    "district": "Pafos"
  },
  {
    "community": "Mesogi",
    "postcode": 8280,
    "district": "Pafos"
  },
  {
    "community": "Mia Milia",
    "postcode": 2525,
    "district": "Lefkosia"
  },
  {
    "community": "Milia Ammochostou",
    "postcode": 5631,
    "district": "Ammochostos"
  },
  {
    "community": "Milia Pafou",
    "postcode": 8744,
    "district": "Pafos"
  },
  {
    "community": "Miliou",
    "postcode": 8726,
    "district": "Pafos"
  },
  {
    "community": "Mirmikofou",
    "postcode": 8883,
    "district": "Pafos"
  },
  {
    "community": "Mitsero",
    "postcode": 2622,
    "district": "Lefkosia"
  },
  {
    "community": "Monagri",
    "postcode": 4746,
    "district": "Lemesos"
  },
  {
    "community": "Monagroulli",
    "postcode": 4524,
    "district": "Lemesos"
  },
  {
    "community": "Monarga",
    "postcode": 5730,
    "district": "Ammochostos"
  },
  {
    "community": "Moni",
    "postcode": 4525,
    "district": "Lemesos"
  },
  {
    "community": "Moni Acheiropoiitou",
    "postcode": 9634,
    "district": "Keryneia"
  },
  {
    "community": "Moni Agias Theklis",
    "postcode": 7644,
    "district": "Larnaka"
  },
  {
    "community": "Moni Agias Varvaras",
    "postcode": 7650,
    "district": "Larnaka"
  },
  {
    "community": "Moni Agion Anargyron",
    "postcode": 8727,
    "district": "Pafos"
  },
  {
    "community": "Moni Agiou Chrysostomou",
    "postcode": 9546,
    "district": "Keryneia"
  },
  {
    "community": "Moni Agiou Georgiou Alamanou",
    "postcode": 4526,
    "district": "Lemesos"
  },
  {
    "community": "Moni Agiou Irakleidiou",
    "postcode": 2648,
    "district": "Lefkosia"
  },
  {
    "community": "Moni Agiou Kendea",
    "postcode": 5524,
    "district": "Ammochostos"
  },
  {
    "community": "Moni Agiou Mina",
    "postcode": 7717,
    "district": "Larnaka"
  },
  {
    "community": "Moni Agiou Neofytou",
    "postcode": 8576,
    "district": "Pafos"
  },
  {
    "community": "Moni Agiou Nikolaou",
    "postcode": 4650,
    "district": "Lemesos"
  },
  {
    "community": "Moni Agiou Panteleimonos",
    "postcode": 9621,
    "district": "Keryneia"
  },
  {
    "community": "Moni Agiou Panteleimonos Achera",
    "postcode": 2624,
    "district": "Lefkosia"
  },
  {
    "community": "Moni Antifoniti",
    "postcode": 9573,
    "district": "Keryneia"
  },
  {
    "community": "Moni Apostolou Andrea",
    "postcode": 5873,
    "district": "Ammochostos"
  },
  {
    "community": "Moni Apostolou Varnava",
    "postcode": 5632,
    "district": "Ammochostos"
  },
  {
    "community": "Moni Archangelou Michail",
    "postcode": 2649,
    "district": "Lefkosia"
  },
  {
    "community": "Moni Chrysorrogiatisas",
    "postcode": 8649,
    "district": "Pafos"
  },
  {
    "community": "Moni Evangelistrias",
    "postcode": 4548,
    "district": "Lemesos"
  },
  {
    "community": "Moni Kykkou",
    "postcode": 2865,
    "district": "Lefkosia"
  },
  {
    "community": "Moni Machaira",
    "postcode": 2621,
    "district": "Lefkosia"
  },
  {
    "community": "Moni Metamorfoseos",
    "postcode": 7509,
    "district": "Larnaka"
  },
  {
    "community": "Moni Panagias Eleousas",
    "postcode": 5877,
    "district": "Ammochostos"
  },
  {
    "community": "Moni Panagias Galaktotrofousas",
    "postcode": 7646,
    "district": "Larnaka"
  },
  {
    "community": "Moni Panagias Melandrinas",
    "postcode": 9574,
    "district": "Keryneia"
  },
  {
    "community": "Moni Panagias Theotokou",
    "postcode": 2653,
    "district": "Lefkosia"
  },
  {
    "community": "Moni Panagias Trikoukkias",
    "postcode": 4847,
    "district": "Lemesos"
  },
  {
    "community": "Moni Profiti Ilia",
    "postcode": 2570,
    "district": "Lefkosia"
  },
  {
    "community": "Moni Stavrovouniou",
    "postcode": 7645,
    "district": "Larnaka"
  },
  {
    "community": "Moni Trooditissis",
    "postcode": 4812,
    "district": "Lemesos"
  },
  {
    "community": "Moni Zoodochou Pigis",
    "postcode": 4508,
    "district": "Lemesos"
  },
  {
    "community": "Moniatis",
    "postcode": 4747,
    "district": "Lemesos"
  },
  {
    "community": "Monte Korfi",
    "postcode": 4552,
    "district": "Lemesos"
  },
  {
    "community": "Mora",
    "postcode": 2526,
    "district": "Lefkosia"
  },
  {
    "community": "Morfou",
    "postcode": 2700,
    "district": "Lefkosia"
  },
  {
    "community": "Moro Nero",
    "postcode": 8542,
    "district": "Pafos"
  },
  {
    "community": "Mosfileri",
    "postcode": 2959,
    "district": "Lefkosia"
  },
  {
    "community": "Mosfiloti",
    "postcode": 7647,
    "district": "Larnaka"
  },
  {
    "community": "Motides",
    "postcode": 9635,
    "district": "Keryneia"
  },
  {
    "community": "Mousere",
    "postcode": 8605,
    "district": "Pafos"
  },
  {
    "community": "Mousoulita",
    "postcode": 5658,
    "district": "Ammochostos"
  },
  {
    "community": "Moutoullas",
    "postcode": 2866,
    "district": "Lefkosia"
  },
  {
    "community": "Mouttagiaka",
    "postcode": 4527,
    "district": "Lemesos"
  },
  {
    "community": "Mouttagiaka Touristiki Periochi",
    "postcode": 4531,
    "district": "Lemesos"
  },
  {
    "community": "Mylikouri",
    "postcode": 2864,
    "district": "Lefkosia"
  },
  {
    "community": "Myrtou",
    "postcode": 9600,
    "district": "Keryneia"
  },
  {
    "community": "Nata",
    "postcode": 8525,
    "district": "Pafos"
  },
  {
    "community": "Nea Dimmata",
    "postcode": 8880,
    "district": "Pafos"
  },
  {
    "community": "Neo Chorio Lefkosias",
    "postcode": 2528,
    "district": "Lefkosia"
  },
  {
    "community": "Neo Chorio Pafou",
    "postcode": 8852,
    "district": "Pafos"
  },
  {
    "community": "Neo Livadi",
    "postcode": 2925,
    "district": "Lefkosia"
  },
  {
    "community": "Neta",
    "postcode": 5832,
    "district": "Ammochostos"
  },
  {
    "community": "Nikitari",
    "postcode": 2777,
    "district": "Lefkosia"
  },
  {
    "community": "Nikitas",
    "postcode": 2926,
    "district": "Lefkosia"
  },
  {
    "community": "Nikokleia",
    "postcode": 8505,
    "district": "Pafos"
  },
  {
    "community": "Nisou",
    "postcode": 2571,
    "district": "Lefkosia"
  },
  {
    "community": "Odou",
    "postcode": 7718,
    "district": "Larnaka"
  },
  {
    "community": "Oikos",
    "postcode": 2867,
    "district": "Lefkosia"
  },
  {
    "community": "Omodos",
    "postcode": 4760,
    "district": "Lemesos"
  },
  {
    "community": "Onisia",
    "postcode": 9547,
    "district": "Keryneia"
  },
  {
    "community": "Ora",
    "postcode": 7719,
    "district": "Larnaka"
  },
  {
    "community": "Orga",
    "postcode": 9636,
    "district": "Keryneia"
  },
  {
    "community": "Ormideia",
    "postcode": 7530,
    "district": "Larnaka"
  },
  {
    "community": "Orounta",
    "postcode": 2779,
    "district": "Lefkosia"
  },
  {
    "community": "Ortakioi",
    "postcode": 2681,
    "district": "Lefkosia"
  },
  {
    "community": "Ovgoros",
    "postcode": 5769,
    "district": "Ammochostos"
  },
  {
    "community": "Pachna",
    "postcode": 4700,
    "district": "Lemesos"
  },
  {
    "community": "Pachyammos",
    "postcode": 2961,
    "district": "Lefkosia"
  },
  {
    "community": "Pafos",
    "postcode": "8010 - 8049",
    "district": "Pafos"
  },
  {
    "community": "Palaichori Morfou",
    "postcode": 2740,
    "district": "Lefkosia"
  },
  {
    "community": "Palaichori Oreinis",
    "postcode": 2745,
    "district": "Lefkosia"
  },
  {
    "community": "Palaikythro",
    "postcode": 2529,
    "district": "Lefkosia"
  },
  {
    "community": "Palaiometocho",
    "postcode": 2682,
    "district": "Lefkosia"
  },
  {
    "community": "Palaiomylos",
    "postcode": 4845,
    "district": "Lemesos"
  },
  {
    "community": "Palaiosofos",
    "postcode": 9637,
    "district": "Keryneia"
  },
  {
    "community": "Paliampela",
    "postcode": 8871,
    "district": "Pafos"
  },
  {
    "community": "Palodeia",
    "postcode": 4549,
    "district": "Lemesos"
  },
  {
    "community": "Panagra",
    "postcode": 9638,
    "district": "Keryneia"
  },
  {
    "community": "Pano Akourdaleia",
    "postcode": 8722,
    "district": "Pafos"
  },
  {
    "community": "Pano Amiantos",
    "postcode": 4811,
    "district": "Lemesos"
  },
  {
    "community": "Pano Archimandrita",
    "postcode": 8603,
    "district": "Pafos"
  },
  {
    "community": "Pano Arodes",
    "postcode": 8703,
    "district": "Pafos"
  },
  {
    "community": "Pano Deftera",
    "postcode": 2460,
    "district": "Lefkosia"
  },
  {
    "community": "Pano Dikomo",
    "postcode": 9540,
    "district": "Keryneia"
  },
  {
    "community": "Pano Flasou",
    "postcode": 2844,
    "district": "Lefkosia"
  },
  {
    "community": "Pano Gialia",
    "postcode": 8875,
    "district": "Pafos"
  },
  {
    "community": "Pano Kivides",
    "postcode": 4715,
    "district": "Lemesos"
  },
  {
    "community": "Pano Koutrafas",
    "postcode": 2771,
    "district": "Lefkosia"
  },
  {
    "community": "Pano Lefkara",
    "postcode": 7700,
    "district": "Larnaka"
  },
  {
    "community": "Pano Panagia",
    "postcode": 8640,
    "district": "Pafos"
  },
  {
    "community": "Pano Platres",
    "postcode": 4820,
    "district": "Lemesos"
  },
  {
    "community": "Pano Polemidia",
    "postcode": "4130 - 4131",
    "district": "Lemesos"
  },
  {
    "community": "Pano Pyrgos",
    "postcode": 2950,
    "district": "Lefkosia"
  },
  {
    "community": "Paralimni",
    "postcode": "5280 - 5297",
    "district": "Ammochostos"
  },
  {
    "community": "Paramali",
    "postcode": 4604,
    "district": "Lemesos"
  },
  {
    "community": "Paramytha",
    "postcode": 4540,
    "district": "Lemesos"
  },
  {
    "community": "Parekklisia",
    "postcode": 4520,
    "district": "Lemesos"
  },
  {
    "community": "Parekklisia Touristiki Periochi",
    "postcode": 4533,
    "district": "Lemesos"
  },
  {
    "community": "Parsata",
    "postcode": 7721,
    "district": "Larnaka"
  },
  {
    "community": "Patriki",
    "postcode": 5732,
    "district": "Ammochostos"
  },
  {
    "community": "Pedoulas",
    "postcode": 2850,
    "district": "Lefkosia"
  },
  {
    "community": "Pegeia",
    "postcode": 8560,
    "district": "Pafos"
  },
  {
    "community": "Pegeia (Agios Georgios Pegeias)",
    "postcode": 8570,
    "district": "Pafos"
  },
  {
    "community": "Pegeia (Kolpos Korallion)",
    "postcode": 8575,
    "district": "Pafos"
  },
  {
    "community": "Pegeia (Maa)",
    "postcode": 8571,
    "district": "Pafos"
  },
  {
    "community": "Pelathousa",
    "postcode": 8882,
    "district": "Pafos"
  },
  {
    "community": "Pelendri",
    "postcode": 4878,
    "district": "Lemesos"
  },
  {
    "community": "Pentageia",
    "postcode": 2928,
    "district": "Lefkosia"
  },
  {
    "community": "Pentakomo",
    "postcode": 4528,
    "district": "Lemesos"
  },
  {
    "community": "Pentalia",
    "postcode": 8650,
    "district": "Pafos"
  },
  {
    "community": "Pera",
    "postcode": 2650,
    "district": "Lefkosia"
  },
  {
    "community": "Pera Chorio",
    "postcode": 2572,
    "district": "Lefkosia"
  },
  {
    "community": "Pera Pedi",
    "postcode": 4779,
    "district": "Lemesos"
  },
  {
    "community": "Pera Vasa",
    "postcode": 8624,
    "district": "Pafos"
  },
  {
    "community": "Pergamos",
    "postcode": 7504,
    "district": "Larnaka"
  },
  {
    "community": "Peristerona Ammochostou",
    "postcode": 5633,
    "district": "Ammochostos"
  },
  {
    "community": "Peristerona Lefkosias",
    "postcode": 2731,
    "district": "Lefkosia"
  },
  {
    "community": "Peristerona Pafou",
    "postcode": 8810,
    "district": "Pafos"
  },
  {
    "community": "Peristeronari",
    "postcode": 2929,
    "district": "Lefkosia"
  },
  {
    "community": "Perivolia Larnakas",
    "postcode": 7560,
    "district": "Larnaka"
  },
  {
    "community": "Perivolia Trikomou",
    "postcode": 5733,
    "district": "Ammochostos"
  },
  {
    "community": "Petra",
    "postcode": 2838,
    "district": "Lefkosia"
  },
  {
    "community": "Petra Tou Digeni",
    "postcode": 2530,
    "district": "Lefkosia"
  },
  {
    "community": "Petrofani",
    "postcode": 7623,
    "district": "Larnaka"
  },
  {
    "community": "Pigenia",
    "postcode": 2962,
    "district": "Lefkosia"
  },
  {
    "community": "Pigi",
    "postcode": 5634,
    "district": "Ammochostos"
  },
  {
    "community": "Pissouri",
    "postcode": 4607,
    "district": "Lemesos"
  },
  {
    "community": "Pitargou",
    "postcode": 8547,
    "district": "Pafos"
  },
  {
    "community": "Pittokopos",
    "postcode": 8705,
    "district": "Pafos"
  },
  {
    "community": "Platani",
    "postcode": 5770,
    "district": "Ammochostos"
  },
  {
    "community": "Platanissos",
    "postcode": 5833,
    "district": "Ammochostos"
  },
  {
    "community": "Platanistasa",
    "postcode": 2755,
    "district": "Lefkosia"
  },
  {
    "community": "Platanisteia",
    "postcode": 4605,
    "district": "Lemesos"
  },
  {
    "community": "Platies Metalleia",
    "postcode": 4503,
    "district": "Lemesos"
  },
  {
    "community": "Polemi",
    "postcode": 8549,
    "district": "Pafos"
  },
  {
    "community": "Polis",
    "postcode": 8820,
    "district": "Pafos"
  },
  {
    "community": "Politiko",
    "postcode": 2651,
    "district": "Lefkosia"
  },
  {
    "community": "Polystypos",
    "postcode": 2756,
    "district": "Lefkosia"
  },
  {
    "community": "Pomos",
    "postcode": 8870,
    "district": "Pafos"
  },
  {
    "community": "Potami",
    "postcode": 2780,
    "district": "Lefkosia"
  },
  {
    "community": "Potamia",
    "postcode": 2573,
    "district": "Lefkosia"
  },
  {
    "community": "Potamiou",
    "postcode": 4780,
    "district": "Lemesos"
  },
  {
    "community": "Potamitissa",
    "postcode": 4879,
    "district": "Lemesos"
  },
  {
    "community": "Potamos Tou Kampou",
    "postcode": 2930,
    "district": "Lefkosia"
  },
  {
    "community": "Praitori",
    "postcode": 8630,
    "district": "Pafos"
  },
  {
    "community": "Prastio Ammochostou",
    "postcode": 5635,
    "district": "Ammochostos"
  },
  {
    "community": "Prastio Avdimou",
    "postcode": 4601,
    "district": "Lemesos"
  },
  {
    "community": "Prastio Kellakiou",
    "postcode": 4505,
    "district": "Lemesos"
  },
  {
    "community": "Prastio Lefkosias",
    "postcode": 2931,
    "district": "Lefkosia"
  },
  {
    "community": "Prastio Pafou",
    "postcode": 8606,
    "district": "Pafos"
  },
  {
    "community": "Prodromi",
    "postcode": 8854,
    "district": "Pafos"
  },
  {
    "community": "Prodromos",
    "postcode": 4840,
    "district": "Lemesos"
  },
  {
    "community": "Profitis Ilias",
    "postcode": 4511,
    "district": "Lemesos"
  },
  {
    "community": "Prosfygikos Synoikismos EAC",
    "postcode": 7506,
    "district": "Larnaka"
  },
  {
    "community": "Prosfygikos Synoikismos Vattaina",
    "postcode": 7508,
    "district": "Larnaka"
  },
  {
    "community": "Psathi",
    "postcode": 8749,
    "district": "Pafos"
  },
  {
    "community": "Psematismenos",
    "postcode": 7743,
    "district": "Larnaka"
  },
  {
    "community": "Psevdas",
    "postcode": 7649,
    "district": "Larnaka"
  },
  {
    "community": "Psimolofou",
    "postcode": 2630,
    "district": "Lefkosia"
  },
  {
    "community": "Psyllatos",
    "postcode": 5661,
    "district": "Ammochostos"
  },
  {
    "community": "Pyla",
    "postcode": 7080,
    "district": "Larnaka"
  },
  {
    "community": "Pyla Touristiki Periochi",
    "postcode": 7081,
    "district": "Larnaka"
  },
  {
    "community": "Pyleri",
    "postcode": 9548,
    "district": "Keryneia"
  },
  {
    "community": "Pyrga Ammochostou",
    "postcode": 5659,
    "district": "Ammochostos"
  },
  {
    "community": "Pyrga Larnakas",
    "postcode": 7648,
    "district": "Larnaka"
  },
  {
    "community": "Pyrgos",
    "postcode": 4529,
    "district": "Lemesos"
  },
  {
    "community": "Pyrgos Touristiki Periochi",
    "postcode": 4534,
    "district": "Lemesos"
  },
  {
    "community": "Pyrogi",
    "postcode": 2531,
    "district": "Lefkosia"
  },
  {
    "community": "Rizokarpaso",
    "postcode": 5850,
    "district": "Ammochostos"
  },
  {
    "community": "Saittas",
    "postcode": 4748,
    "district": "Lemesos"
  },
  {
    "community": "Salamina",
    "postcode": 5636,
    "district": "Ammochostos"
  },
  {
    "community": "Salamiou",
    "postcode": 8620,
    "district": "Pafos"
  },
  {
    "community": "Sanatorio Kyperountas",
    "postcode": 4877,
    "district": "Lemesos"
  },
  {
    "community": "Sanida",
    "postcode": 4510,
    "district": "Lemesos"
  },
  {
    "community": "Santalaris",
    "postcode": 5637,
    "district": "Ammochostos"
  },
  {
    "community": "Sarama",
    "postcode": 8814,
    "district": "Pafos"
  },
  {
    "community": "Saranti",
    "postcode": 2757,
    "district": "Lefkosia"
  },
  {
    "community": "Scholi Mitsi",
    "postcode": 4848,
    "district": "Lemesos"
  },
  {
    "community": "Selladi tou Appi",
    "postcode": 2964,
    "district": "Lefkosia"
  },
  {
    "community": "Sia",
    "postcode": 2574,
    "district": "Lefkosia"
  },
  {
    "community": "Sichari",
    "postcode": 9549,
    "district": "Keryneia"
  },
  {
    "community": "Silikou",
    "postcode": 4742,
    "district": "Lemesos"
  },
  {
    "community": "Simou",
    "postcode": 8812,
    "district": "Pafos"
  },
  {
    "community": "Sinaoros",
    "postcode": 2839,
    "district": "Lefkosia"
  },
  {
    "community": "Sinta",
    "postcode": 5567,
    "district": "Ammochostos"
  },
  {
    "community": "Skarinou",
    "postcode": 7731,
    "district": "Larnaka"
  },
  {
    "community": "Skoulli",
    "postcode": 8728,
    "district": "Pafos"
  },
  {
    "community": "Skouriotissa",
    "postcode": 2840,
    "district": "Lefkosia"
  },
  {
    "community": "Skylloura",
    "postcode": 2683,
    "district": "Lefkosia"
  },
  {
    "community": "Softades",
    "postcode": 7561,
    "district": "Larnaka"
  },
  {
    "community": "Soloi",
    "postcode": 2932,
    "district": "Lefkosia"
  },
  {
    "community": "Sotira Ammochostou",
    "postcode": 5390,
    "district": "Ammochostos"
  },
  {
    "community": "Sotira Lemesou",
    "postcode": 4633,
    "district": "Lemesos"
  },
  {
    "community": "Souni",
    "postcode": 4717,
    "district": "Lemesos"
  },
  {
    "community": "Souskiou",
    "postcode": 8506,
    "district": "Pafos"
  },
  {
    "community": "Spathariko",
    "postcode": 5734,
    "district": "Ammochostos"
  },
  {
    "community": "Spilia",
    "postcode": 2841,
    "district": "Lefkosia"
  },
  {
    "community": "Spitali",
    "postcode": 4550,
    "district": "Lemesos"
  },
  {
    "community": "Stathmos Bogaziou",
    "postcode": 9550,
    "district": "Keryneia"
  },
  {
    "community": "Stathmos Choirokoitias",
    "postcode": 7742,
    "district": "Larnaka"
  },
  {
    "community": "Stathmos Filagron",
    "postcode": 4749,
    "district": "Lemesos"
  },
  {
    "community": "Stathmos Kalavasou",
    "postcode": 7734,
    "district": "Larnaka"
  },
  {
    "community": "Stathmos Koroveias",
    "postcode": 5876,
    "district": "Ammochostos"
  },
  {
    "community": "Stathmos Laneias",
    "postcode": 4751,
    "district": "Lemesos"
  },
  {
    "community": "Stathmos Mozora",
    "postcode": 4813,
    "district": "Lemesos"
  },
  {
    "community": "Stathmos Orgonta",
    "postcode": 2868,
    "district": "Lefkosia"
  },
  {
    "community": "Stathmos Pefkou",
    "postcode": 4568,
    "district": "Lemesos"
  },
  {
    "community": "Stathmos Pissouriou",
    "postcode": 4608,
    "district": "Lemesos"
  },
  {
    "community": "Stathmos Skarinou",
    "postcode": 7732,
    "district": "Larnaka"
  },
  {
    "community": "Statos - Agios Fotios",
    "postcode": 8651,
    "district": "Pafos"
  },
  {
    "community": "Stavrokonnou",
    "postcode": 8601,
    "district": "Pafos"
  },
  {
    "community": "Steni",
    "postcode": 8884,
    "district": "Pafos"
  },
  {
    "community": "Sterakovou",
    "postcode": 4635,
    "district": "Lemesos"
  },
  {
    "community": "Strongylos",
    "postcode": 5568,
    "district": "Ammochostos"
  },
  {
    "community": "Stroumpi",
    "postcode": "8550 - 8551",
    "district": "Pafos"
  },
  {
    "community": "Strovili",
    "postcode": 5525,
    "district": "Ammochostos"
  },
  {
    "community": "Strovolos",
    "postcode": "2000 - 2066",
    "district": "Lefkosia"
  },
  {
    "community": "Stylloi",
    "postcode": 5638,
    "district": "Ammochostos"
  },
  {
    "community": "Sygkrasi",
    "postcode": 5735,
    "district": "Ammochostos"
  },
  {
    "community": "Sykopetra",
    "postcode": 4569,
    "district": "Lemesos"
  },
  {
    "community": "Symvoulos",
    "postcode": 4634,
    "district": "Lemesos"
  },
  {
    "community": "Syrianochori",
    "postcode": 2729,
    "district": "Lefkosia"
  },
  {
    "community": "Sysklipos",
    "postcode": 9620,
    "district": "Keryneia"
  },
  {
    "community": "Tala",
    "postcode": 8577,
    "district": "Pafos"
  },
  {
    "community": "Tavrou",
    "postcode": 5834,
    "district": "Ammochostos"
  },
  {
    "community": "Templos",
    "postcode": 9515,
    "district": "Keryneia"
  },
  {
    "community": "Temvria",
    "postcode": 2842,
    "district": "Lefkosia"
  },
  {
    "community": "Tera",
    "postcode": 8729,
    "district": "Pafos"
  },
  {
    "community": "Tersefanou",
    "postcode": 7562,
    "district": "Larnaka"
  },
  {
    "community": "Theletra",
    "postcode": 8723,
    "district": "Pafos"
  },
  {
    "community": "Thermeia",
    "postcode": 9510,
    "district": "Keryneia"
  },
  {
    "community": "Thrinia",
    "postcode": 8743,
    "district": "Pafos"
  },
  {
    "community": "Timi",
    "postcode": 8507,
    "district": "Pafos"
  },
  {
    "community": "Tochni",
    "postcode": 7740,
    "district": "Larnaka"
  },
  {
    "community": "Trachonas",
    "postcode": 2470,
    "district": "Lefkosia"
  },
  {
    "community": "Trachoni Lefkosias",
    "postcode": 2532,
    "district": "Lefkosia"
  },
  {
    "community": "Trachoni Lemesou",
    "postcode": 4651,
    "district": "Lemesos"
  },
  {
    "community": "Trachypedoula",
    "postcode": 8608,
    "district": "Pafos"
  },
  {
    "community": "Trapeza",
    "postcode": 9575,
    "district": "Keryneia"
  },
  {
    "community": "Treis Elies",
    "postcode": 4846,
    "district": "Lemesos"
  },
  {
    "community": "Tremethousia",
    "postcode": 7624,
    "district": "Larnaka"
  },
  {
    "community": "Tremithousa",
    "postcode": 8270,
    "district": "Pafos"
  },
  {
    "community": "Trikomo",
    "postcode": 5700,
    "district": "Ammochostos"
  },
  {
    "community": "Trimiklini",
    "postcode": 4730,
    "district": "Lemesos"
  },
  {
    "community": "Trimithi",
    "postcode": 9516,
    "district": "Keryneia"
  },
  {
    "community": "Trimithousa",
    "postcode": 8813,
    "district": "Pafos"
  },
  {
    "community": "Troodos",
    "postcode": 4800,
    "district": "Lemesos"
  },
  {
    "community": "Troulloi",
    "postcode": 7505,
    "district": "Larnaka"
  },
  {
    "community": "Trozaina",
    "postcode": 4781,
    "district": "Lemesos"
  },
  {
    "community": "Trypimeni",
    "postcode": 5660,
    "district": "Ammochostos"
  },
  {
    "community": "Tsada",
    "postcode": 8540,
    "district": "Pafos"
  },
  {
    "community": "Tsakistra",
    "postcode": 2869,
    "district": "Lefkosia"
  },
  {
    "community": "Tseri",
    "postcode": 2480,
    "district": "Lefkosia"
  },
  {
    "community": "Tserkezoi",
    "postcode": 4652,
    "district": "Lemesos"
  },
  {
    "community": "Tymvou",
    "postcode": 2533,
    "district": "Lefkosia"
  },
  {
    "community": "Variseia",
    "postcode": 2921,
    "district": "Lefkosia"
  },
  {
    "community": "Vasa Kellakiou",
    "postcode": 4504,
    "district": "Lemesos"
  },
  {
    "community": "Vasa Koilaniou",
    "postcode": 4771,
    "district": "Lemesos"
  },
  {
    "community": "Vasileia",
    "postcode": 9631,
    "district": "Keryneia"
  },
  {
    "community": "Vasili",
    "postcode": 5823,
    "district": "Ammochostos"
  },
  {
    "community": "Vasiliko",
    "postcode": 7738,
    "district": "Larnaka"
  },
  {
    "community": "Vatili",
    "postcode": 5562,
    "district": "Ammochostos"
  },
  {
    "community": "Vavatsinia",
    "postcode": 7712,
    "district": "Larnaka"
  },
  {
    "community": "Vavla",
    "postcode": 7713,
    "district": "Larnaka"
  },
  {
    "community": "Vavylas",
    "postcode": 9630,
    "district": "Keryneia"
  },
  {
    "community": "Vikla",
    "postcode": 4509,
    "district": "Lemesos"
  },
  {
    "community": "Vitsada",
    "postcode": 5653,
    "district": "Ammochostos"
  },
  {
    "community": "Vokolida",
    "postcode": 5726,
    "district": "Ammochostos"
  },
  {
    "community": "Voni",
    "postcode": 2520,
    "district": "Lefkosia"
  },
  {
    "community": "Voroklini",
    "postcode": 7040,
    "district": "Larnaka"
  },
  {
    "community": "Voroklini Touristiki Periochi",
    "postcode": 7041,
    "district": "Larnaka"
  },
  {
    "community": "Vothylakas",
    "postcode": 5822,
    "district": "Ammochostos"
  },
  {
    "community": "Vouni",
    "postcode": 4772,
    "district": "Lemesos"
  },
  {
    "community": "Vouno",
    "postcode": 9542,
    "district": "Keryneia"
  },
  {
    "community": "Vretsia",
    "postcode": 8644,
    "district": "Pafos"
  },
  {
    "community": "Vrysoules",
    "postcode": 5522,
    "district": "Ammochostos"
  },
  {
    "community": "Vyzakia",
    "postcode": 2774,
    "district": "Lefkosia"
  },
  {
    "community": "Xeros",
    "postcode": 2927,
    "district": "Lefkosia"
  },
  {
    "community": "Xerovounos",
    "postcode": 2960,
    "district": "Lefkosia"
  },
  {
    "community": "Xyliatos",
    "postcode": 2781,
    "district": "Lefkosia"
  },
  {
    "community": "Xylofagou",
    "postcode": 7520,
    "district": "Larnaka"
  },
  {
    "community": "Xylotymvou",
    "postcode": 7510,
    "district": "Larnaka"
  },
  {
    "community": "Ypsonas",
    "postcode": "4180 - 4194",
    "district": "Lemesos"
  },
  {
    "community": "Zacharia",
    "postcode": 8806,
    "district": "Pafos"
  },
  {
    "community": "Zanakia",
    "postcode": 4713,
    "district": "Lemesos"
  },
  {
    "community": "Zodeia Kato",
    "postcode": 2723,
    "district": "Lefkosia"
  },
  {
    "community": "Zodeia Pano",
    "postcode": 2724,
    "district": "Lefkosia"
  },
  {
    "community": "Zoopigi",
    "postcode": 4565,
    "district": "Lemesos"
  },
  {
    "community": "Zygi",
    "postcode": 7739,
    "district": "Larnaka"
  }
]
